{"type": "FeatureCollection", "features": [{"type": "Feature", "properties": {"norad_id": 28890, "name": "BEIJING 1", "group": "dmc", "lat": -57.64816640337282, "lon": 124.1734961001648, "alt_km": 698.6675617658348, "timestamp": "2025-12-09T09:46:47.313674+00:00", "meta": {"OBJECT_NAME": "BEIJING 1", "OBJECT_ID": "2005-043A", "EPOCH": "2025-12-08T22:33:38.653344", "MEAN_MOTION": 14.63361052, "ECCENTRICITY": 0.00150624, "INCLINATION": 98.2656, "RA_OF_ASC_NODE": 110.4381, "ARG_OF_PERICENTER": 152.5706, "MEAN_ANOMALY": 207.6294, "EPHEMERIS_TYPE": 0, "CLASSIFICATION_TYPE": "U", "NORAD_CAT_ID": 28890, "ELEMENT_SET_NO": 999, "REV_AT_EPOCH": 7282, "BSTAR": 0.00017017557, "MEAN_MOTION_DOT": 8.32e-06, "MEAN_MOTION_DDOT": 0}, "tle": {"line1": "1 28890U 05043A   25342.94003071  .00000832  00000+0  17018-3 0  9991", "line2": "2 28890  98.2656 110.4381 0015062 152.5706 207.6294 14.63361052 72823"}}, "geometry": {"type": "Point", "coordinates": [124.1734961001648, -57.64816640337282]}}, {"type": "Feature", "properties": {"norad_id": 33320, "name": "HUANJING 1A (HJ-1A)", "group": "dmc", "lat": 82.30209660000116, "lon": -112.36590847768623, "alt_km": 601.0334844701483, "timestamp": "2025-12-09T09:46:47.313698+00:00", "meta": {"OBJECT_NAME": "HUANJING 1A (HJ-1A)", "OBJECT_ID": "2008-041A", "EPOCH": "2025-12-09T04:31:25.695840", "MEAN_MOTION": 14.83376348, "ECCENTRICITY": 0.0020365, "INCLINATION": 97.654, "RA_OF_ASC_NODE": 331.6349, "ARG_OF_PERICENTER": 45.4668, "MEAN_ANOMALY": 314.8206, "EPHEMERIS_TYPE": 0, "CLASSIFICATION_TYPE": "U", "NORAD_CAT_ID": 33320, "ELEMENT_SET_NO": 999, "REV_AT_EPOCH": 93023, "BSTAR": 0.00030716, "MEAN_MOTION_DOT": 2.477e-05, "MEAN_MOTION_DDOT": 0}, "tle": {"line1": "1 33320U 08041A   25343.18849185  .00002477  00000+0  30716-3 0  9994", "line2": "2 33320  97.6540 331.6349 0020365  45.4668 314.8206 14.83376348930230"}}, "geometry": {"type": "Point", "coordinates": [-112.36590847768623, 82.30209660000116]}}, {"type": "Feature", "properties": {"norad_id": 33321, "name": "HUANJING 1B (HJ-1B)", "group": "dmc", "lat": -42.9275014267083, "lon": -17.277397524674573, "alt_km": 644.110950635044, "timestamp": "2025-12-09T09:46:47.313713+00:00", "meta": {"OBJECT_NAME": "HUANJING 1B (HJ-1B)", "OBJECT_ID": "2008-041B", "EPOCH": "2025-12-09T05:07:01.255872", "MEAN_MOTION": 14.82807974, "ECCENTRICITY": 0.0038258, "INCLINATION": 97.6396, "RA_OF_ASC_NODE": 335.365, "ARG_OF_PERICENTER": 86.8036, "MEAN_ANOMALY": 273.7555, "EPHEMERIS_TYPE": 0, "CLASSIFICATION_TYPE": "U", "NORAD_CAT_ID": 33321, "ELEMENT_SET_NO": 999, "REV_AT_EPOCH": 93025, "BSTAR": 0.00029206, "MEAN_MOTION_DOT": 2.341e-05, "MEAN_MOTION_DDOT": 0}, "tle": {"line1": "1 33321U 08041B   25343.21320898  .00002341  00000+0  29206-3 0  9996", "line2": "2 33321  97.6396 335.3650 0038258  86.8036 273.7555 14.82807974930259"}}, "geometry": {"type": "Point", "coordinates": [-17.277397524674573, -42.9275014267083]}}, {"type": "Feature", "properties": {"norad_id": 33446, "name": "YAOGAN-4", "group": "dmc", "lat": -49.528714498126746, "lon": 84.15156776904843, "alt_km": 630.2570641844213, "timestamp": "2025-12-09T09:46:47.313726+00:00", "meta": {"OBJECT_NAME": "YAOGAN-4", "OBJECT_ID": "2008-061A", "EPOCH": "2025-12-08T19:47:11.729184", "MEAN_MOTION": 14.82664885, "ECCENTRICITY": 0.00139192, "INCLINATION": 97.9177, "RA_OF_ASC_NODE": 272.962, "ARG_OF_PERICENTER": 336.595, "MEAN_ANOMALY": 23.4628, "EPHEMERIS_TYPE": 0, "CLASSIFICATION_TYPE": "U", "NORAD_CAT_ID": 33446, "ELEMENT_SET_NO": 999, "REV_AT_EPOCH": 91745, "BSTAR": 0.00038742009, "MEAN_MOTION_DOT": 3.075e-05, "MEAN_MOTION_DDOT": 0}, "tle": {"line1": "1 33446U 08061A   25342.82444131  .00003075  00000+0  38742-3 0  9999", "line2": "2 33446  97.9177 272.9620 0013919 336.5950  23.4628 14.82664885917457"}}, "geometry": {"type": "Point", "coordinates": [84.15156776904843, -49.528714498126746]}}, {"type": "Feature", "properties": {"norad_id": 35681, "name": "DEIMOS-1", "group": "dmc", "lat": 81.8288626930166, "lon": 34.908073209304774, "alt_km": 635.9878731866884, "timestamp": "2025-12-09T09:46:47.313738+00:00", "meta": {"OBJECT_NAME": "DEIMOS-1", "OBJECT_ID": "2009-041A", "EPOCH": "2025-12-08T23:35:32.349120", "MEAN_MOTION": 14.74944279, "ECCENTRICITY": 0.00027139, "INCLINATION": 97.7145, "RA_OF_ASC_NODE": 143.7609, "ARG_OF_PERICENTER": 85.3579, "MEAN_ANOMALY": 274.7941, "EPHEMERIS_TYPE": 0, "CLASSIFICATION_TYPE": "U", "NORAD_CAT_ID": 35681, "ELEMENT_SET_NO": 999, "REV_AT_EPOCH": 87884, "BSTAR": 0.00018870686, "MEAN_MOTION_DOT": 1.22e-05, "MEAN_MOTION_DDOT": 0}, "tle": {"line1": "1 35681U 09041A   25342.98301330  .00001220  00000+0  18871-3 0  9992", "line2": "2 35681  97.7145 143.7609 0002713  85.3579 274.7941 14.74944279878848"}}, "geometry": {"type": "Point", "coordinates": [34.908073209304774, 81.8288626930166]}}, {"type": "Feature", "properties": {"norad_id": 35683, "name": "UK-DMC 2", "group": "dmc", "lat": 77.52019949813152, "lon": -22.9968496828586, "alt_km": 634.9961122665254, "timestamp": "2025-12-09T09:46:47.313750+00:00", "meta": {"OBJECT_NAME": "UK-DMC 2", "OBJECT_ID": "2009-041C", "EPOCH": "2025-12-08T23:33:54.325728", "MEAN_MOTION": 14.75608643, "ECCENTRICITY": 0.00013526, "INCLINATION": 97.8563, "RA_OF_ASC_NODE": 117.9908, "ARG_OF_PERICENTER": 96.4562, "MEAN_ANOMALY": 263.6801, "EPHEMERIS_TYPE": 0, "CLASSIFICATION_TYPE": "U", "NORAD_CAT_ID": 35683, "ELEMENT_SET_NO": 999, "REV_AT_EPOCH": 87851, "BSTAR": 0.00022320769, "MEAN_MOTION_DOT": 1.474e-05, "MEAN_MOTION_DDOT": 0}, "tle": {"line1": "1 35683U 09041C   25342.98187877  .00001474  00000+0  22321-3 0  9998", "line2": "2 35683  97.8563 117.9908 0001352  96.4562 263.6801 14.75608643878512"}}, "geometry": {"type": "Point", "coordinates": [-22.9968496828586, 77.52019949813152]}}, {"type": "Feature", "properties": {"norad_id": 40715, "name": "DMC3-FM1", "group": "dmc", "lat": 30.742254243845803, "lon": -153.87570131094498, "alt_km": 608.7241406148332, "timestamp": "2025-12-09T09:46:47.313761+00:00", "meta": {"OBJECT_NAME": "DMC3-FM1", "OBJECT_ID": "2015-032A", "EPOCH": "2025-12-09T04:47:25.866816", "MEAN_MOTION": 14.85432727, "ECCENTRICITY": 0.0004905, "INCLINATION": 97.669, "RA_OF_ASC_NODE": 210.5207, "ARG_OF_PERICENTER": 335.2765, "MEAN_ANOMALY": 24.8215, "EPHEMERIS_TYPE": 0, "CLASSIFICATION_TYPE": "U", "NORAD_CAT_ID": 40715, "ELEMENT_SET_NO": 999, "REV_AT_EPOCH": 56170, "BSTAR": 0.00022077, "MEAN_MOTION_DOT": 1.851e-05, "MEAN_MOTION_DDOT": 0}, "tle": {"line1": "1 40715U 15032A   25343.19960494  .00001851  00000+0  22077-3 0  9992", "line2": "2 40715  97.6690 210.5207 0004905 335.2765  24.8215 14.85432727561706"}}, "geometry": {"type": "Point", "coordinates": [-153.87570131094498, 30.742254243845803]}}, {"type": "Feature", "properties": {"norad_id": 40716, "name": "DMC3-FM2", "group": "dmc", "lat": -82.27863535789183, "lon": -63.8116162684399, "alt_km": 618.1406130371261, "timestamp": "2025-12-09T09:46:47.313772+00:00", "meta": {"OBJECT_NAME": "DMC3-FM2", "OBJECT_ID": "2015-032B", "EPOCH": "2025-12-09T05:19:49.783872", "MEAN_MOTION": 14.8543355, "ECCENTRICITY": 0.0005643, "INCLINATION": 97.6748, "RA_OF_ASC_NODE": 211.9839, "ARG_OF_PERICENTER": 339.9223, "MEAN_ANOMALY": 20.177, "EPHEMERIS_TYPE": 0, "CLASSIFICATION_TYPE": "U", "NORAD_CAT_ID": 40716, "ELEMENT_SET_NO": 999, "REV_AT_EPOCH": 56170, "BSTAR": 0.00015771, "MEAN_MOTION_DOT": 1.308e-05, "MEAN_MOTION_DDOT": 0}, "tle": {"line1": "1 40716U 15032B   25343.22210398  .00001308  00000+0  15771-3 0  9998", "line2": "2 40716  97.6748 211.9839 0005643 339.9223  20.1770 14.85433550561707"}}, "geometry": {"type": "Point", "coordinates": [-63.8116162684399, -82.27863535789183]}}, {"type": "Feature", "properties": {"norad_id": 40717, "name": "DMC3-FM3", "group": "dmc", "lat": 24.23353537519086, "lon": 37.275590357238364, "alt_km": 615.1997187997949, "timestamp": "2025-12-09T09:46:47.313783+00:00", "meta": {"OBJECT_NAME": "DMC3-FM3", "OBJECT_ID": "2015-032C", "EPOCH": "2025-12-09T04:13:55.949664", "MEAN_MOTION": 14.85421085, "ECCENTRICITY": 0.000503, "INCLINATION": 97.6801, "RA_OF_ASC_NODE": 213.5703, "ARG_OF_PERICENTER": 341.5884, "MEAN_ANOMALY": 18.5149, "EPHEMERIS_TYPE": 0, "CLASSIFICATION_TYPE": "U", "NORAD_CAT_ID": 40717, "ELEMENT_SET_NO": 999, "REV_AT_EPOCH": 56170, "BSTAR": 7.7163e-05, "MEAN_MOTION_DOT": 6.13e-06, "MEAN_MOTION_DDOT": 0}, "tle": {"line1": "1 40717U 15032C   25343.17634201  .00000613  00000+0  77163-4 0  9998", "line2": "2 40717  97.6801 213.5703 0005030 341.5884  18.5149 14.85421085561709"}}, "geometry": {"type": "Point", "coordinates": [37.275590357238364, 24.23353537519086]}}]}